NORAD_CAT_ID,OBJECT_NAME,OBJECT_TYPE,EPOCH,MEAN_MOTION,ECCENTRICITY,INCLINATION,RA_OF_ASC_NODE,ARG_OF_PERICENTER,MEAN_ANOMALY,BSTAR,MEAN_MOTION_DOT,MEAN_MOTION_DDOT,TLE_LINE0,TLE_LINE1,TLE_LINE2,SEMIMAJOR_AXIS,PERIOD,APOGEE,PERIGEE,DECAYED
52844.0,STARLINK-4208,PAYLOAD,2022-07-04 14:00:01,15.73262807,0.0001453999999999,53.2157,320.4552,35.9294,39.129,-7.3682e-05,-0.00010976,0.0,0 STARLINK-4208,1 52844U 22062Q   22185.58334491 -.00010976  00000-0 -73682-4 0  9995,2 52844  53.2157 320.4552 0001454  35.9294  39.1290 15.73262807  1304,6727.715999999999,91.53,350.559,348.603,0.0
52844.0,STARLINK-4208,PAYLOAD,2022-07-04 22:00:00,15.73289961,0.0001644,53.215,318.806,33.6309,130.4483,-0.00035411,-0.00050215,0.0,0 STARLINK-4208,1 52844U 22062Q   22185.91667824 -.00050215  00000-0 -35411-3 0  9998,2 52844  53.2150 318.8060 0001644  33.6309 130.4483 15.73289961  1304,6727.639,91.528,350.61,348.398,0.0
52844.0,STARLINK-4208,PAYLOAD,2022-07-05 14:00:01,15.7330741,0.0001567,53.2152,315.5063,36.4435,305.631,-0.00098929,-0.00137846,0.0,0 STARLINK-4208,1 52844U 22062Q   22186.58334491 -.00137846  00000-0 -98929-3 0  9992,2 52844  53.2152 315.5063 0001567  36.4435 305.6310 15.73307410  3349,6727.589,91.527,350.5080000000001,348.4,0.0
52844.0,STARLINK-4208,PAYLOAD,2022-07-05 22:00:00,15.73260253,0.0001795,53.2156,313.8573,33.6813,37.383,-0.0013241,-0.00182951,0.0,0 STARLINK-4208,1 52844U 22062Q   22186.91667824 -.00182951  00000-0 -13241-2 0  9998,2 52844  53.2156 313.8573 0001795  33.6813  37.3830 15.73260253  1305,6727.723000000001,91.53,350.796,348.381,0.0
52844.0,STARLINK-4208,PAYLOAD,2022-07-06 06:00:00,15.73120178,0.0001763,53.2153,312.2054,46.5824,113.4137,0.0004377,0.00061047,0.0,0 STARLINK-4208,1 52844U 22062Q   22187.25001157  .00061047  00000-0  43770-3 0  9998,2 52844  53.2153 312.2054 0001763  46.5824 113.4137 15.73120178  3443,6728.123000000001,91.538,351.1740000000001,348.802,0.0
52844.0,STARLINK-4208,PAYLOAD,2022-07-06 14:00:01,15.73163995,0.0001993,53.2156,310.558,43.4146,205.4404,7.797300000000001e-05,0.00010319,0.0,0 STARLINK-4208,1 52844U 22062Q   22187.58334491  .00010319  00000-0  77973-4 0  9993,2 52844  53.2156 310.5580 0001993  43.4146 205.4404 15.73163995  1305,6727.998000000001,91.535,351.204,348.522,0.0
52844.0,STARLINK-4208,PAYLOAD,2022-07-06 22:00:00,15.73167692,0.0001977,53.2159,308.9087,38.3866,299.3567,0.00056036,0.00078656,0.0,0 STARLINK-4208,1 52844U 22062Q   22187.91667824  .00078656  00000-0  56036-3 0  9993,2 52844  53.2159 308.9087 0001977  38.3866 299.3567 15.73167692  3554,6727.986999999999,91.535,351.182,348.522,0.0
52844.0,STARLINK-4208,PAYLOAD,2022-07-07 04:11:37,15.73194978,0.0001938,53.2153,307.6301,43.4809,316.6364,0.00024809,0.00034333,0.0,0 STARLINK-4208,1 52844U 22062Q   22188.17474144  .00034333  00000-0  24809-3 0  9990,2 52844  53.2153 307.6301 0001938  43.4809 316.6364 15.73194978  3593,6727.909000000002,91.533,351.07800000000015,348.471,0.0
52844.0,STARLINK-4208,PAYLOAD,2022-07-07 13:20:30,15.73226646,0.0002015,53.2153,305.7436,41.2775,318.8397,0.00027958,0.00038845,0.0,0 STARLINK-4208,1 52844U 22062Q   22188.55590682  .00038845  00000-0  27958-3 0  9998,2 52844  53.2153 305.7436 0002015  41.2775 318.8397 15.73226646  3167,6727.819,91.532,351.04,348.329,0.0
52844.0,STARLINK-4208,PAYLOAD,2022-07-07 20:57:53,15.73262959,0.0002026,53.2152,304.1715,43.6746,316.4435,0.00038644,0.00054113,0.0,0 STARLINK-4208,1 52844U 22062Q   22188.87353885  .00054113  00000-0  38644-3 0  9995,2 52844  53.2152 304.1715 0002026  43.6746 316.4435 15.73262959  3215,6727.715999999999,91.53,350.944,348.218,0.0
52844.0,STARLINK-4208,PAYLOAD,2022-07-08 06:00:02,15.73214246,0.0001764,53.2152,302.3076,36.6275,297.0025,0.00032956,0.00045914,0.0,0 STARLINK-4208,1 52844U 22062Q   22189.25002315  .00045914  00000-0  32956-3 0  9996,2 52844  53.2152 302.3076 0001764  36.6275 297.0025 15.73214246  3767,6727.855,91.532,350.906,348.533,0.0
52844.0,STARLINK-4208,PAYLOAD,2022-07-08 14:00:01,15.73266121,0.0001959,53.2163,300.6601,34.0344,28.4951,-0.0010061,-0.00139906,0.0,0 STARLINK-4208,1 52844U 22062Q   22189.58334491 -.00139906  00000-0 -10061-2 0  9994,2 52844  53.2163 300.6601 0001959  34.0344  28.4951 15.73266121  3818,6727.706999999999,91.529,350.89,348.254,0.0
52844.0,STARLINK-4208,PAYLOAD,2022-07-08 22:00:01,15.73240816,0.0001865,53.2154,299.0092,17.9804,133.5909,-0.00053701,-0.0007545,0.0,0 STARLINK-4208,1 52844U 22062Q   22189.91668981 -.00075450  00000-0 -53701-3 0  9997,2 52844  53.2154 299.0092 0001865  17.9804 133.5909 15.73240816  3869,6727.779,91.531,350.899,348.389,0.0
52844.0,STARLINK-4208,PAYLOAD,2022-07-09 14:00:01,15.73167373,0.0001916,53.2151,295.7113,20.0679,309.2684,-0.0002578,-0.00036596,0.0,0 STARLINK-4208,1 52844U 22062Q   22190.58334491 -.00036596  00000-0 -25780-3 0  9992,2 52844  53.2151 295.7113 0001916  20.0679 309.2684 15.73167373  1300,6727.988,91.535,351.142,348.564,0.0
52844.0,STARLINK-4208,PAYLOAD,2022-07-09 16:00:00,15.73128086,0.0001941,53.2153,295.2994,17.2673,64.2992,0.00032248,0.00044741,0.0,0 STARLINK-4208,1 52844U 22062Q   22190.66667824  .00044741  00000-0  32248-3 0  9996,2 52844  53.2153 295.2994 0001941  17.2673  64.2992 15.73128086  3988,6728.1,91.537,351.271,348.659,0.0
52844.0,STARLINK-4208,PAYLOAD,2022-07-09 20:00:01,15.73206444,0.0001672,53.2171,294.4743,25.8053,280.1169,-1.6651e-05,-2.957e-05,0.0,0 STARLINK-4208,1 52844U 22062Q   22190.83334491 -.00002957  00000-0 -16651-4 0  9992,2 52844  53.2171 294.4743 0001672  25.8053 280.1169 15.73206444  1303,6727.877,91.533,350.867,348.617,0.0
52844.0,STARLINK-4208,PAYLOAD,2022-07-10 14:00:01,15.73228259,0.0002302,53.2158,290.7626,29.0431,207.1079,-0.00020755,-0.00029686,0.0,0 STARLINK-4208,1 52844U 22062Q   22191.58334491 -.00029686  00000-0 -20755-3 0  9992,2 52844  53.2158 290.7626 0002302  29.0431 207.1079 15.73228259  1301,6727.815,91.532,351.228,348.131,0.0
52844.0,STARLINK-4208,PAYLOAD,2022-07-10 22:00:00,15.73206502,0.0002212,53.2154,289.1121,24.8678,300.2457,-0.00012235,-0.00017763,0.0,0 STARLINK-4208,1 52844U 22062Q   22191.91667824 -.00017763  00000-0 -12235-3 0  9995,2 52844  53.2154 289.1121 0002212  24.8678 300.2457 15.73206502  1307,6727.877,91.533,351.23,348.25300000000016,0.0
52844.0,STARLINK-4208,PAYLOAD,2022-07-11 06:00:00,15.73208551,0.0002042,53.2157,287.4615,25.7959,28.2394,0.00021435,0.0002958,0.0,0 STARLINK-4208,1 52844U 22062Q   22192.25001157  .00029580  00000-0  21435-3 0  9994,2 52844  53.2157 287.4615 0002042  25.7959  28.2394 15.73208551  4230,6727.871,91.533,351.11,348.362,0.0
52844.0,STARLINK-4208,PAYLOAD,2022-07-11 14:00:01,15.73197756,0.000228,53.2155,285.8141,20.3505,122.651,2.1278e-06,-3.23e-06,0.0,0 STARLINK-4208,1 52844U 22062Q   22192.58334491 -.00000323  00000-0  21278-5 0  9992,2 52844  53.2155 285.8141 0002280  20.3505 122.6510 15.73197756  1304,6727.901999999999,91.533,351.301,348.233,0.0
52844.0,STARLINK-4208,PAYLOAD,2022-07-11 22:00:00,15.73229977,0.0002294,53.2155,284.1636,21.0791,210.8521,-0.00060557,-0.00084877,0.0,0 STARLINK-4208,1 52844U 22062Q   22192.91667824 -.00084877  00000-0 -60557-3 0  9996,2 52844  53.2155 284.1636 0002294  21.0791 210.8521 15.73229977  4345,6727.81,91.531,351.218,348.131,0.0
52844.0,STARLINK-4208,PAYLOAD,2022-07-12 06:00:00,15.73205703,0.0002187,53.216,282.513,23.8344,297.0131,-0.00024188,-0.00034441,0.0,0 STARLINK-4208,1 52844U 22062Q   22193.25001157 -.00034441  00000-0 -24188-3 0  9997,2 52844  53.2160 282.5130 0002187  23.8344 297.0131 15.73205703  4397,6727.879,91.533,351.215,348.273,0.0
52844.0,STARLINK-4208,PAYLOAD,2022-07-12 14:00:01,15.73163309,0.0002477,53.2159,280.8658,19.2089,30.5942,0.00042903,0.00059932,0.0,0 STARLINK-4208,1 52844U 22062Q   22193.58334491  .00059932  00000-0  42903-3 0  9998,2 52844  53.2159 280.8658 0002477  19.2089  30.5942 15.73163309  4449,6728.0,91.535,351.531,348.1980000000001,0.0
52844.0,STARLINK-4208,PAYLOAD,2022-07-12 22:00:00,15.73238668,0.0002449,53.2155,279.2152,19.061,119.6611,0.0001918,0.00026428,0.0,0 STARLINK-4208,1 52844U 22062Q   22193.91667824  .00026428  00000-0  19180-3 0  9999,2 52844  53.2155 279.2152 0002449  19.0610 119.6611 15.73238668  1308,6727.785,91.531,351.298,348.00199999999984,0.0
52844.0,STARLINK-4208,PAYLOAD,2022-07-13 14:00:01,15.73200631,0.000257,53.2153,275.9176,18.6066,298.0692,-0.00047949,-0.00067393,0.0,0 STARLINK-4208,1 52844U 22062Q   22194.58334491 -.00067393  00000-0 -47949-3 0  9996,2 52844  53.2153 275.9176 0002570  18.6066 298.0692 15.73200631  4606,6727.893,91.533,351.487,348.029,0.0
52844.0,STARLINK-4208,PAYLOAD,2022-07-13 22:00:00,15.73152621,0.0002472,53.2152,274.2669,15.966,29.6063,-0.00061846,-0.00086373,0.0,0 STARLINK-4208,1 52844U 22062Q   22194.91667824 -.00086373  00000-0 -61846-3 0  9993,2 52844  53.2152 274.2669 0002472  15.9660  29.6063 15.73152621  1304,6728.03,91.536,351.55800000000005,348.232,0.0
52844.0,STARLINK-4208,PAYLOAD,2022-07-14 14:00:01,15.73111002,0.0002828,53.2153,270.9697,19.9606,203.2654,0.00047599,0.00066465,0.0,0 STARLINK-4208,1 52844U 22062Q   22195.58334491  .00066465  00000-0  47599-3 0  9995,2 52844  53.2153 270.9697 0002828  19.9606 203.2654 15.73111002  4754,6728.149,91.538,351.917,348.111,0.0
52844.0,STARLINK-4208,PAYLOAD,2022-07-14 22:00:00,15.73171201,0.0002699,53.2149,269.3189,20.5504,291.5303,0.00014854,0.00020252,0.0,0 STARLINK-4208,1 52844U 22062Q   22195.91667824  .00020252  00000-0  14854-3 0  9993,2 52844  53.2149 269.3189 0002699  20.5504 291.5303 15.73171201  1304,6727.977,91.535,351.658,348.026,0.0
52844.0,STARLINK-4208,PAYLOAD,2022-07-15 14:00:01,15.73209079,0.0002929,53.2147,266.0215,20.3773,109.551,0.0005906,0.00083135,0.0,0 STARLINK-4208,1 52844U 22062Q   22196.58334491  .00083135  00000-0  59060-3 0  9995,2 52844  53.2147 266.0215 0002929  20.3773 109.5510 15.73209079  4911,6727.869000000002,91.533,351.705,347.764,0.0
